{
  "type": "FeatureCollection",
  "features": [
    {
      "type": "Feature",
      "properties": {
        "norad_id": 33860,
        "name": "IRIDIUM 33 DEB",
        "group": "iridium-33-debris",
        "lat": -21.25545560607705,
        "lon": -151.63004383671728,
        "alt_km": 679.5743179732417,
        "timestamp": "2025-12-13T08:49:16.076590+00:00",
        "meta_object_name": "IRIDIUM 33 DEB",
        "meta_object_id": "1997-051AD",
        "meta_epoch": "2025-12-12T21:15:55.141632",
        "meta_mean_motion": 14.67373087,
        "meta_eccentricity": 0.00074389,
        "meta_inclination": 86.3839,
        "meta_ra_of_asc_node": 27.1734,
        "meta_arg_of_pericenter": 357.4731,
        "meta_mean_anomaly": 181.891,
        "meta_ephemeris_type": 0,
        "meta_classification_type": "U",
        "meta_norad_cat_id": 33860,
        "meta_element_set_no": 999,
        "meta_rev_at_epoch": 88724,
        "meta_bstar": 0.0017350996,
        "meta_mean_motion_dot": 9.832e-05,
        "meta_mean_motion_ddot": 0,
        "tle_line1": "1 33860U 97051AD  25346.88605488  .00009832  00000+0  17351-2 0  9999",
        "tle_line2": "2 33860  86.3839  27.1734 0007438 357.4731 181.8910 14.67373087887248"
      },
      "geometry": {
        "type": "Point",
        "coordinates": [
          -151.63004383671728,
          -21.25545560607705
        ]
      }
    },
    {
      "type": "Feature",
      "properties": {
        "norad_id": 33862,
        "name": "IRIDIUM 33 DEB",
        "group": "iridium-33-debris",
        "lat": -61.18275432067104,
        "lon": -136.19266533253315,
        "alt_km": 707.4143735769749,
        "timestamp": "2025-12-13T08:49:16.076601+00:00",
        "meta_object_name": "IRIDIUM 33 DEB",
        "meta_object_id": "1997-051AF",
        "meta_epoch": "2025-12-12T15:55:01.502112",
        "meta_mean_motion": 14.69477679,
        "meta_eccentricity": 0.00534829,
        "meta_inclination": 86.4093,
        "meta_ra_of_asc_node": 37.5638,
        "meta_arg_of_pericenter": 69.4755,
        "meta_mean_anomaly": 48.1816,
        "meta_ephemeris_type": 0,
        "meta_classification_type": "U",
        "meta_norad_cat_id": 33862,
        "meta_element_set_no": 999,
        "meta_rev_at_epoch": 88822,
        "meta_bstar": 0.0019686403,
        "meta_mean_motion_dot": 0.00011955,
        "meta_mean_motion_ddot": 0,
        "tle_line1": "1 33862U 97051AF  25346.66321183  .00011955  00000+0  19686-2 0  9996",
        "tle_line2": "2 33862  86.4093  37.5638 0053482  69.4755  48.1816 14.69477679888220"
      },
      "geometry": {
        "type": "Point",
        "coordinates": [
          -136.19266533253315,
          -61.18275432067104
        ]
      }
    },
    {
      "type": "Feature",
      "properties": {
        "norad_id": 33866,
        "name": "IRIDIUM 33 DEB",
        "group": "iridium-33-debris",
        "lat": -27.785290457277018,
        "lon": -85.27614480389778,
        "alt_km": 758.2160817054382,
        "timestamp": "2025-12-13T08:49:16.076611+00:00",
        "meta_object_name": "IRIDIUM 33 DEB",
        "meta_object_id": "1997-051AK",
        "meta_epoch": "2025-12-12T17:16:50.270592",
        "meta_mean_motion": 14.25275842,
        "meta_eccentricity": 0.01144792,
        "meta_inclination": 86.2996,
        "meta_ra_of_asc_node": 93.0437,
        "meta_arg_of_pericenter": 161.4645,
        "meta_mean_anomaly": 324.9498,
        "meta_ephemeris_type": 0,
        "meta_classification_type": "U",
        "meta_norad_cat_id": 33866,
        "meta_element_set_no": 999,
        "meta_rev_at_epoch": 86810,
        "meta_bstar": 0.001099679,
        "meta_mean_motion_dot": 2.789e-05,
        "meta_mean_motion_ddot": 0,
        "tle_line1": "1 33866U 97051AK  25346.72002628  .00002789  00000+0  10997-2 0  9998",
        "tle_line2": "2 33866  86.2996  93.0437 0114479 161.4645 324.9498 14.25275842868109"
      },
      "geometry": {
        "type": "Point",
        "coordinates": [
          -85.27614480389778,
          -27.785290457277018
        ]
      }
    },
    {
      "type": "Feature",
      "properties": {
        "norad_id": 33867,
        "name": "IRIDIUM 33 DEB",
        "group": "iridium-33-debris",
        "lat": -24.450215488098085,
        "lon": 171.43649570095025,
        "alt_km": 371.05608212957577,
        "timestamp": "2025-12-13T08:49:16.076622+00:00",
        "meta_object_name": "IRIDIUM 33 DEB",
        "meta_object_id": "1997-051AL",
        "meta_epoch": "2025-12-13T00:17:57.337152",
        "meta_mean_motion": 15.68448649,
        "meta_eccentricity": 0.00133514,
        "meta_inclination": 86.3647,
        "meta_ra_of_asc_node": 349.9645,
        "meta_arg_of_pericenter": 88.5689,
        "meta_mean_anomaly": 271.711,
        "meta_ephemeris_type": 0,
        "meta_classification_type": "U",
        "meta_norad_cat_id": 33867,
        "meta_element_set_no": 999,
        "meta_rev_at_epoch": 89515,
        "meta_bstar": 0.0092270239,
        "meta_mean_motion_dot": 0.01147185,
        "meta_mean_motion_ddot": 0,
        "tle_line1": "1 33867U 97051AL  25347.01246918  .01147185  00000+0  92270-2 0  9999",
        "tle_line2": "2 33867  86.3647 349.9645 0013351  88.5689 271.7110 15.68448649895152"
      },
      "geometry": {
        "type": "Point",
        "coordinates": [
          171.43649570095025,
          -24.450215488098085
        ]
      }
    },
    {
      "type": "Feature",
      "properties": {
        "norad_id": 33870,
        "name": "IRIDIUM 33 DEB",
        "group": "iridium-33-debris",
        "lat": -8.138079937954236,
        "lon": 57.47196407880881,
        "alt_km": 758.5010280568031,
        "timestamp": "2025-12-13T08:49:16.076633+00:00",
        "meta_object_name": "IRIDIUM 33 DEB",
        "meta_object_id": "1997-051AP",
        "meta_epoch": "2025-12-12T16:49:59.850624",
        "meta_mean_motion": 14.45852384,
        "meta_eccentricity": 0.00214473,
        "meta_inclination": 86.3746,
        "meta_ra_of_asc_node": 58.2769,
        "meta_arg_of_pericenter": 178.2616,
        "meta_mean_anomaly": 308.486,
        "meta_ephemeris_type": 0,
        "meta_classification_type": "U",
        "meta_norad_cat_id": 33870,
        "meta_element_set_no": 999,
        "meta_rev_at_epoch": 88136,
        "meta_bstar": 0.0012339735,
        "meta_mean_motion_dot": 4.412e-05,
        "meta_mean_motion_ddot": 0,
        "tle_line1": "1 33870U 97051AP  25346.70138716  .00004412  00000+0  12340-2 0  9998",
        "tle_line2": "2 33870  86.3746  58.2769 0021447 178.2616 308.4860 14.45852384881362"
      },
      "geometry": {
        "type": "Point",
        "coordinates": [
          57.47196407880881,
          -8.138079937954236
        ]
      }
    },
    {
      "type": "Feature",
      "properties": {
        "norad_id": 33881,
        "name": "IRIDIUM 33 DEB",
        "group": "iridium-33-debris",
        "lat": -64.89483430091998,
        "lon": -65.77851644830604,
        "alt_km": 698.192829790677,
        "timestamp": "2025-12-13T08:49:16.076643+00:00",
        "meta_object_name": "IRIDIUM 33 DEB",
        "meta_object_id": "1997-051BA",
        "meta_epoch": "2025-12-12T20:44:34.160064",
        "meta_mean_motion": 14.56580115,
        "meta_eccentricity": 0.00614774,
        "meta_inclination": 86.386,
        "meta_ra_of_asc_node": 106.688,
        "meta_arg_of_pericenter": 174.2575,
        "meta_mean_anomaly": 312.8923,
        "meta_ephemeris_type": 0,
        "meta_classification_type": "U",
        "meta_norad_cat_id": 33881,
        "meta_element_set_no": 999,
        "meta_rev_at_epoch": 87502,
        "meta_bstar": 0.0029090171,
        "meta_mean_motion_dot": 0.00013329,
        "meta_mean_motion_ddot": 0,
        "tle_line1": "1 33881U 97051BA  25346.86428426  .00013329  00000+0  29090-2 0  9994",
        "tle_line2": "2 33881  86.3860 106.6880 0061477 174.2575 312.8923 14.56580115875027"
      },
      "geometry": {
        "type": "Point",
        "coordinates": [
          -65.77851644830604,
          -64.89483430091998
        ]
      }
    },
    {
      "type": "Feature",
      "properties": {
        "norad_id": 33884,
        "name": "IRIDIUM 33 DEB",
        "group": "iridium-33-debris",
        "lat": -57.917818748425056,
        "lon": -164.65286241403422,
        "alt_km": 643.816734357848,
        "timestamp": "2025-12-13T08:49:16.076654+00:00",
        "meta_object_name": "IRIDIUM 33 DEB",
        "meta_object_id": "1997-051BD",
        "meta_epoch": "2025-12-12T14:26:14.242272",
        "meta_mean_motion": 14.77426992,
        "meta_eccentricity": 0.00098121,
        "meta_inclination": 86.3703,
        "meta_ra_of_asc_node": 9.8809,
        "meta_arg_of_pericenter": 324.3008,
        "meta_mean_anomaly": 162.3731,
        "meta_ephemeris_type": 0,
        "meta_classification_type": "U",
        "meta_norad_cat_id": 33884,
        "meta_element_set_no": 999,
        "meta_rev_at_epoch": 88845,
        "meta_bstar": 0.0019961519,
        "meta_mean_motion_dot": 0.00014256,
        "meta_mean_motion_ddot": 0,
        "tle_line1": "1 33884U 97051BD  25346.60155373  .00014256  00000+0  19962-2 0  9994",
        "tle_line2": "2 33884  86.3703   9.8809 0009812 324.3008 162.3731 14.77426992888456"
      },
      "geometry": {
        "type": "Point",
        "coordinates": [
          -164.65286241403422,
          -57.917818748425056
        ]
      }
    }
  ]
}